{
  "type": "FeatureCollection",
  "features": [
    {
      "type": "Feature",
      "properties": {
        "norad_id": 40730,
        "name": "GPS BIIF-10 (PRN 08)",
        "group": "gps-ops",
        "lat": 52.315838310108646,
        "lon": -16.35854114381451,
        "alt_km": 19985.395921884337,
        "timestamp": "2025-12-24T07:45:06.458774+00:00",
        "meta_object_name": "GPS BIIF-10 (PRN 08)",
        "meta_object_id": "2015-033A",
        "meta_epoch": "2025-12-23T05:17:42.404352",
        "meta_mean_motion": 2.00565183,
        "meta_eccentricity": 0.01115799,
        "meta_inclination": 54.1216,
        "meta_ra_of_asc_node": 274.3416,
        "meta_arg_of_pericenter": 27.0753,
        "meta_mean_anomaly": 333.5521,
        "meta_ephemeris_type": 0,
        "meta_classification_type": "U",
        "meta_norad_cat_id": 40730,
        "meta_element_set_no": 999,
        "meta_rev_at_epoch": 7646,
        "meta_bstar": 0,
        "meta_mean_motion_dot": -1.3e-07,
        "meta_mean_motion_ddot": 0,
        "tle_line1": "1 40730U 15033A   25357.22062968 -.00000013  00000+0  00000+0 0  9996",
        "tle_line2": "2 40730  54.1216 274.3416 0111579  27.0753 333.5521  2.00565183 76465"
      },
      "geometry": {
        "type": "Point",
        "coordinates": [
          -16.35854114381451,
          52.315838310108646
        ]
      }
    },
    {
      "type": "Feature",
      "properties": {
        "norad_id": 41019,
        "name": "GPS BIIF-11 (PRN 10)",
        "group": "gps-ops",
        "lat": 26.733916664266758,
        "lon": 56.78876694984741,
        "alt_km": 20459.790944007174,
        "timestamp": "2025-12-24T07:45:06.458786+00:00",
        "meta_object_name": "GPS BIIF-11 (PRN 10)",
        "meta_object_id": "2015-062A",
        "meta_epoch": "2025-12-23T06:43:12.895968",
        "meta_mean_motion": 2.00567181,
        "meta_eccentricity": 0.01110751,
        "meta_inclination": 56.8398,
        "meta_ra_of_asc_node": 37.5947,
        "meta_arg_of_pericenter": 230.2304,
        "meta_mean_anomaly": 128.8517,
        "meta_ephemeris_type": 0,
        "meta_classification_type": "U",
        "meta_norad_cat_id": 41019,
        "meta_element_set_no": 999,
        "meta_rev_at_epoch": 7430,
        "meta_bstar": 0,
        "meta_mean_motion_dot": -4.8e-07,
        "meta_mean_motion_ddot": 0,
        "tle_line1": "1 41019U 15062A   25357.28001037 -.00000048  00000+0  00000+0 0  9993",
        "tle_line2": "2 41019  56.8398  37.5947 0111075 230.2304 128.8517  2.00567181 74306"
      },
      "geometry": {
        "type": "Point",
        "coordinates": [
          56.78876694984741,
          26.733916664266758
        ]
      }
    },
    {
      "type": "Feature",
      "properties": {
        "norad_id": 41328,
        "name": "GPS BIIF-12 (PRN 32)",
        "group": "gps-ops",
        "lat": -21.632656306682573,
        "lon": 80.54503589143017,
        "alt_km": 20181.67347462377,
        "timestamp": "2025-12-24T07:45:06.458797+00:00",
        "meta_object_name": "GPS BIIF-12 (PRN 32)",
        "meta_object_id": "2016-007A",
        "meta_epoch": "2025-12-21T20:48:30.607488",
        "meta_mean_motion": 2.00560245,
        "meta_eccentricity": 0.00926349,
        "meta_inclination": 55.4111,
        "meta_ra_of_asc_node": 96.4948,
        "meta_arg_of_pericenter": 243.8067,
        "meta_mean_anomaly": 115.2397,
        "meta_ephemeris_type": 0,
        "meta_classification_type": "U",
        "meta_norad_cat_id": 41328,
        "meta_element_set_no": 999,
        "meta_rev_at_epoch": 7228,
        "meta_bstar": 0,
        "meta_mean_motion_dot": -3e-08,
        "meta_mean_motion_ddot": 0,
        "tle_line1": "1 41328U 16007A   25355.86702092 -.00000003  00000+0  00000+0 0  9998",
        "tle_line2": "2 41328  55.4111  96.4948 0092634 243.8067 115.2397  2.00560245 72282"
      },
      "geometry": {
        "type": "Point",
        "coordinates": [
          80.54503589143017,
          -21.632656306682573
        ]
      }
    },
    {
      "type": "Feature",
      "properties": {
        "norad_id": 43873,
        "name": "GPS BIII-1  (PRN 04)",
        "group": "gps-ops",
        "lat": -37.088840140500004,
        "lon": -49.72411251635714,
        "alt_km": 20102.136408179813,
        "timestamp": "2025-12-24T07:45:06.458808+00:00",
        "meta_object_name": "GPS BIII-1  (PRN 04)",
        "meta_object_id": "2018-109A",
        "meta_epoch": "2025-12-23T17:59:08.698272",
        "meta_mean_motion": 2.00553954,
        "meta_eccentricity": 0.00376155,
        "meta_inclination": 55.5727,
        "meta_ra_of_asc_node": 99.1128,
        "meta_arg_of_pericenter": 195.5361,
        "meta_mean_anomaly": 337.0288,
        "meta_ephemeris_type": 0,
        "meta_classification_type": "U",
        "meta_norad_cat_id": 43873,
        "meta_element_set_no": 999,
        "meta_rev_at_epoch": 5155,
        "meta_bstar": 0,
        "meta_mean_motion_dot": 1.4e-07,
        "meta_mean_motion_ddot": 0,
        "tle_line1": "1 43873U 18109A   25357.74940623  .00000014  00000+0  00000+0 0  9994",
        "tle_line2": "2 43873  55.5727  99.1128 0037615 195.5361 337.0288  2.00553954 51550"
      },
      "geometry": {
        "type": "Point",
        "coordinates": [
          -49.72411251635714,
          -37.088840140500004
        ]
      }
    },
    {
      "type": "Feature",
      "properties": {
        "norad_id": 44506,
        "name": "GPS BIII-2  (PRN 18)",
        "group": "gps-ops",
        "lat": 43.50848150892362,
        "lon": 117.73918896800508,
        "alt_km": 20136.4257581735,
        "timestamp": "2025-12-24T07:45:06.458820+00:00",
        "meta_object_name": "GPS BIII-2  (PRN 18)",
        "meta_object_id": "2019-056A",
        "meta_epoch": "2025-12-23T09:23:28.795200",
        "meta_mean_motion": 2.0056658,
        "meta_eccentricity": 0.00577459,
        "meta_inclination": 55.7176,
        "meta_ra_of_asc_node": 338.1305,
        "meta_arg_of_pericenter": 198.6012,
        "meta_mean_anomaly": 332.8304,
        "meta_ephemeris_type": 0,
        "meta_classification_type": "U",
        "meta_norad_cat_id": 44506,
        "meta_element_set_no": 999,
        "meta_rev_at_epoch": 4654,
        "meta_bstar": 0,
        "meta_mean_motion_dot": -6.4e-07,
        "meta_mean_motion_ddot": 0,
        "tle_line1": "1 44506U 19056A   25357.39130550 -.00000064  00000+0  00000+0 0  9997",
        "tle_line2": "2 44506  55.7176 338.1305 0057745 198.6012 332.8304  2.00566580 46544"
      },
      "geometry": {
        "type": "Point",
        "coordinates": [
          117.73918896800508,
          43.50848150892362
        ]
      }
    },
    {
      "type": "Feature",
      "properties": {
        "norad_id": 45854,
        "name": "GPS BIII-3  (PRN 23)",
        "group": "gps-ops",
        "lat": 50.42866563205261,
        "lon": 88.82664721567582,
        "alt_km": 20292.54713633229,
        "timestamp": "2025-12-24T07:45:06.458831+00:00",
        "meta_object_name": "GPS BIII-3  (PRN 23)",
        "meta_object_id": "2020-041A",
        "meta_epoch": "2025-12-23T06:54:40.562208",
        "meta_mean_motion": 2.00561768,
        "meta_eccentricity": 0.00606476,
        "meta_inclination": 56.5539,
        "meta_ra_of_asc_node": 35.7754,
        "meta_arg_of_pericenter": 203.7047,
        "meta_mean_anomaly": 196.9972,
        "meta_ephemeris_type": 0,
        "meta_classification_type": "U",
        "meta_norad_cat_id": 45854,
        "meta_element_set_no": 999,
        "meta_rev_at_epoch": 4051,
        "meta_bstar": 0,
        "meta_mean_motion_dot": -4.9e-07,
        "meta_mean_motion_ddot": 0,
        "tle_line1": "1 45854U 20041A   25357.28796947 -.00000049  00000+0  00000+0 0  9999",
        "tle_line2": "2 45854  56.5539  35.7754 0060647 203.7047 196.9972  2.00561768 40516"
      },
      "geometry": {
        "type": "Point",
        "coordinates": [
          88.82664721567582,
          50.42866563205261
        ]
      }
    },
    {
      "type": "Feature",
      "properties": {
        "norad_id": 46826,
        "name": "GPS BIII-4  (PRN 14)",
        "group": "gps-ops",
        "lat": 30.643921522310244,
        "lon": -116.617932703534,
        "alt_km": 20344.2036700346,
        "timestamp": "2025-12-24T07:45:06.458842+00:00",
        "meta_object_name": "GPS BIII-4  (PRN 14)",
        "meta_object_id": "2020-078A",
        "meta_epoch": "2025-12-16T01:06:13.902336",
        "meta_mean_motion": 2.00566891,
        "meta_eccentricity": 0.00647535,
        "meta_inclination": 54.0144,
        "meta_ra_of_asc_node": 218.2068,
        "meta_arg_of_pericenter": 203.3802,
        "meta_mean_anomaly": 339.3962,
        "meta_ephemeris_type": 0,
        "meta_classification_type": "U",
        "meta_norad_cat_id": 46826,
        "meta_element_set_no": 999,
        "meta_rev_at_epoch": 3783,
        "meta_bstar": 0,
        "meta_mean_motion_dot": 6.7e-07,
        "meta_mean_motion_ddot": 0,
        "tle_line1": "1 46826U 20078A   25350.04599424  .00000067  00000+0  00000+0 0  9996",
        "tle_line2": "2 46826  54.0144 218.2068 0064753 203.3802 339.3962  2.00566891 37839"
      },
      "geometry": {
        "type": "Point",
        "coordinates": [
          -116.617932703534,
          30.643921522310244
        ]
      }
    }
  ]
}